start=new Date('2023-02-15T00:00:00.000Z').valueOf();
sats=[{"RA_OF_ASC_NODE":"222.2668","SITE":"AFWTR","GP_ID":"225433423","RCS_SIZE":"LARGE","MEAN_MOTION":"15.08846814","LAUNCH_DATE":"2021-12-18","ECCENTRICITY":"0.00013610","ARG_OF_PERICENTER":"89.3175","ELEMENT_SET_NO":"999","BSTAR":"0.00032751000000","FILE":"3792084","REV_AT_EPOCH":"6580","TLE_LINE2":"2 50207  53.2141 222.2668 0001361  89.3175 270.7973 15.08846814 65803","SEMIMAJOR_AXIS":"6917.860","MEAN_ANOMALY":"270.7973","APOAPSIS":"540.666","OBJECT_ID":"2021-125BD","MEAN_MOTION_DOT":"0.00004929","EPOCH":"2023-02-14T17:50:15.652608","NORAD_CAT_ID":"50207","TIME_SYSTEM":"UTC","PERIAPSIS":"538.783","COUNTRY_CODE":"US","EPHEMERIS_TYPE":"0","INCLINATION":"53.2141","CLASSIFICATION_TYPE":"U","TLE_LINE1":"1 50207U 21125BD  23045.74323672  .00004929  00000-0  32751-3 0  9998","OBJECT_NAME":"STARLINK-3262","REF_FRAME":"TEME","CENTER_NAME":"EARTH","MEAN_ELEMENT_THEORY":"SGP4","DECAY_DATE":null,"MEAN_MOTION_DDOT":"0.0000000000000","OBJECT_TYPE":"PAYLOAD","PERIOD":"95.437"},{"ECCENTRICITY":"0.00011550","ELEMENT_SET_NO":"999","ARG_OF_PERICENTER":"76.2682","BSTAR":"0.00002675200000","FILE":"3792084","RA_OF_ASC_NODE":"152.6390","SITE":"AFETR","MEAN_MOTION":"15.08854034","GP_ID":"225433191","RCS_SIZE":"LARGE","LAUNCH_DATE":"2022-01-06","MEAN_MOTION_DOT":"0.00000138","OBJECT_ID":"2022-001A","EPOCH":"2023-02-14T15:52:20.281440","NORAD_CAT_ID":"50803","TLE_LINE2":"2 50803  53.2160 152.6390 0001155  76.2682 283.8438 15.08854034 61476","REV_AT_EPOCH":"6147","SEMIMAJOR_AXIS":"6917.837","APOAPSIS":"540.502","MEAN_ANOMALY":"283.8438","EPHEMERIS_TYPE":"0","INCLINATION":"53.2160","TIME_SYSTEM":"UTC","COUNTRY_CODE":"US","PERIAPSIS":"538.903","MEAN_ELEMENT_THEORY":"SGP4","DECAY_DATE":null,"MEAN_MOTION_DDOT":"0.0000000000000","OBJECT_TYPE":"PAYLOAD","PERIOD":"95.437","TLE_LINE1":"1 50803U 22001A   23045.66134585  .00000138  00000-0  26752-4 0  9991","CLASSIFICATION_TYPE":"U","OBJECT_NAME":"STARLINK-3321","REF_FRAME":"TEME","CENTER_NAME":"EARTH"},{"TIME_SYSTEM":"UTC","PERIAPSIS":"538.987","COUNTRY_CODE":"US","INCLINATION":"53.2146","EPHEMERIS_TYPE":"0","REF_FRAME":"TEME","OBJECT_NAME":"STARLINK-3323","CENTER_NAME":"EARTH","CLASSIFICATION_TYPE":"U","TLE_LINE1":"1 50804U 22001B   23045.69538952  .00001863  00000-0  13507-3 0  9990","MEAN_MOTION_DDOT":"0.0000000000000","OBJECT_TYPE":"PAYLOAD","PERIOD":"95.437","MEAN_ELEMENT_THEORY":"SGP4","DECAY_DATE":null,"RCS_SIZE":"LARGE","GP_ID":"225433943","MEAN_MOTION":"15.08849455","LAUNCH_DATE":"2022-01-06","SITE":"AFETR","RA_OF_ASC_NODE":"142.4849","BSTAR":"0.00013507000000","FILE":"3792084","ECCENTRICITY":"0.00010540","ARG_OF_PERICENTER":"114.6704","ELEMENT_SET_NO":"999","SEMIMAJOR_AXIS":"6917.851","MEAN_ANOMALY":"245.4398","APOAPSIS":"540.446","TLE_LINE2":"2 50804  53.2146 142.4849 0001054 114.6704 245.4398 15.08849455 61613","REV_AT_EPOCH":"6161","NORAD_CAT_ID":"50804","EPOCH":"2023-02-14T16:41:21.654528","OBJECT_ID":"2022-001B","MEAN_MOTION_DOT":"0.00001863"},{"GP_ID":"225400502","RCS_SIZE":"LARGE","MEAN_MOTION":"15.08866091","LAUNCH_DATE":"2022-01-06","SITE":"AFETR","RA_OF_ASC_NODE":"143.0917","BSTAR":"0.00297900000000","FILE":"3791611","ECCENTRICITY":"0.00015620","ARG_OF_PERICENTER":"87.4461","ELEMENT_SET_NO":"999","SEMIMAJOR_AXIS":"6917.801","MEAN_ANOMALY":"272.6710","APOAPSIS":"540.746","TLE_LINE2":"2 50805  53.2151 143.0917 0001562  87.4461 272.6710 15.08866091 62867","REV_AT_EPOCH":"6286","NORAD_CAT_ID":"50805","EPOCH":"2023-02-14T13:25:18.355872","MEAN_MOTION_DOT":"0.00047477","OBJECT_ID":"2022-001C","TIME_SYSTEM":"UTC","PERIAPSIS":"538.585","COUNTRY_CODE":"US","INCLINATION":"53.2151","EPHEMERIS_TYPE":"0","CENTER_NAME":"EARTH","OBJECT_NAME":"STARLINK-3333","REF_FRAME":"TEME","CLASSIFICATION_TYPE":"U","TLE_LINE1":"1 50805U 22001C   23045.55924023  .00047477  00000-0  29790-2 0  9995","OBJECT_TYPE":"PAYLOAD","MEAN_MOTION_DDOT":"0.0000000000000","PERIOD":"95.436","MEAN_ELEMENT_THEORY":"SGP4","DECAY_DATE":null},{"EPHEMERIS_TYPE":"0","INCLINATION":"53.2175","TIME_SYSTEM":"UTC","COUNTRY_CODE":"US","PERIAPSIS":"538.991","MEAN_ELEMENT_THEORY":"SGP4","DECAY_DATE":null,"MEAN_MOTION_DDOT":"0.0000000000000","OBJECT_TYPE":"PAYLOAD","PERIOD":"95.436","TLE_LINE1":"1 50806U 22001D   23045.75427376  .00028968  00000-0  18295-2 0  9999","CLASSIFICATION_TYPE":"U","CENTER_NAME":"EARTH","REF_FRAME":"TEME","OBJECT_NAME":"STARLINK-3335","ECCENTRICITY":"0.00009790","ELEMENT_SET_NO":"999","ARG_OF_PERICENTER":"99.2803","BSTAR":"0.00182950000000","FILE":"3792084","SITE":"AFETR","RA_OF_ASC_NODE":"142.2164","MEAN_MOTION":"15.08865111","RCS_SIZE":"LARGE","GP_ID":"225433441","LAUNCH_DATE":"2022-01-06","OBJECT_ID":"2022-001D","MEAN_MOTION_DOT":"0.00028968","EPOCH":"2023-02-14T18:06:09.252864","NORAD_CAT_ID":"50806","TLE_LINE2":"2 50806  53.2175 142.2164 0000979  99.2803 260.8300 15.08865111 61620","REV_AT_EPOCH":"6162","SEMIMAJOR_AXIS":"6917.804","APOAPSIS":"540.346","MEAN_ANOMALY":"260.8300"},{"PERIAPSIS":"538.913","COUNTRY_CODE":"US","TIME_SYSTEM":"UTC","INCLINATION":"53.2160","EPHEMERIS_TYPE":"0","CENTER_NAME":"EARTH","OBJECT_NAME":"STARLINK-3353","REF_FRAME":"TEME","CLASSIFICATION_TYPE":"U","TLE_LINE1":"1 50807U 22001E   23045.73954150  .00002159  00000-0  15363-3 0  9991","PERIOD":"95.436","MEAN_MOTION_DDOT":"0.0000000000000","OBJECT_TYPE":"PAYLOAD","DECAY_DATE":null,"MEAN_ELEMENT_THEORY":"SGP4","LAUNCH_DATE":"2022-01-06","RCS_SIZE":"LARGE","GP_ID":"225433691","MEAN_MOTION":"15.08859546","SITE":"AFETR","RA_OF_ASC_NODE":"142.2840","FILE":"3792084","BSTAR":"0.00015363000000","ARG_OF_PERICENTER":"90.0759","ELEMENT_SET_NO":"999","ECCENTRICITY":"0.00011170","MEAN_ANOMALY":"270.0361","APOAPSIS":"540.458","SEMIMAJOR_AXIS":"6917.821","TLE_LINE2":"2 50807  53.2160 142.2840 0001117  90.0759 270.0361 15.08859546 61625","REV_AT_EPOCH":"6162","NORAD_CAT_ID":"50807","EPOCH":"2023-02-14T17:44:56.385600","MEAN_MOTION_DOT":"0.00002159","OBJECT_ID":"2022-001E"},{"COUNTRY_CODE":"US","PERIAPSIS":"538.767","TIME_SYSTEM":"UTC","EPHEMERIS_TYPE":"0","INCLINATION":"53.2153","TLE_LINE1":"1 50808U 22001F   23045.68067367  .00013127  00000-0  84089-3 0  9999","CLASSIFICATION_TYPE":"U","REF_FRAME":"TEME","OBJECT_NAME":"STARLINK-3355","CENTER_NAME":"EARTH","DECAY_DATE":null,"MEAN_ELEMENT_THEORY":"SGP4","PERIOD":"95.436","OBJECT_TYPE":"PAYLOAD","MEAN_MOTION_DDOT":"0.0000000000000","RA_OF_ASC_NODE":"142.5544","SITE":"AFETR","LAUNCH_DATE":"2022-01-06","MEAN_MOTION":"15.08857571","GP_ID":"225434443","RCS_SIZE":"LARGE","ELEMENT_SET_NO":"999","ARG_OF_PERICENTER":"88.5921","ECCENTRICITY":"0.00013360","FILE":"3792084","BSTAR":"0.00084089000000","TLE_LINE2":"2 50808  53.2153 142.5544 0001336  88.5921 271.5224 15.08857571 61617","REV_AT_EPOCH":"6161","APOAPSIS":"540.616","MEAN_ANOMALY":"271.5224","SEMIMAJOR_AXIS":"6917.827","MEAN_MOTION_DOT":"0.00013127","OBJECT_ID":"2022-001F","EPOCH":"2023-02-14T16:20:10.205088","NORAD_CAT_ID":"50808"},{"DECAY_DATE":null,"MEAN_ELEMENT_THEORY":"SGP4","PERIOD":"95.436","OBJECT_TYPE":"PAYLOAD","MEAN_MOTION_DDOT":"0.0000000000000","TLE_LINE1":"1 50809U 22001G   23045.68435212  .00022706  00000-0  14391-2 0  9999","CLASSIFICATION_TYPE":"U","OBJECT_NAME":"STARLINK-3232","REF_FRAME":"TEME","CENTER_NAME":"EARTH","EPHEMERIS_TYPE":"0","INCLINATION":"53.2151","COUNTRY_CODE":"US","PERIAPSIS":"538.721","TIME_SYSTEM":"UTC","MEAN_MOTION_DOT":"0.00022706","OBJECT_ID":"2022-001G","EPOCH":"2023-02-14T16:25:28.023168","NORAD_CAT_ID":"50809","REV_AT_EPOCH":"6161","TLE_LINE2":"2 50809  53.2151 142.5378 0001365  93.2432 266.8717 15.08866145 61614","APOAPSIS":"540.610","MEAN_ANOMALY":"266.8717","SEMIMAJOR_AXIS":"6917.800","ELEMENT_SET_NO":"999","ARG_OF_PERICENTER":"93.2432","ECCENTRICITY":"0.00013650","FILE":"3792084","BSTAR":"0.00143910000000","SITE":"AFETR","RA_OF_ASC_NODE":"142.5378","LAUNCH_DATE":"2022-01-06","MEAN_MOTION":"15.08866145","GP_ID":"225434184","RCS_SIZE":"LARGE"},{"TLE_LINE1":"1 50810U 22001H   23045.74323468  .00050273  00000-0  31515-2 0  9994","CLASSIFICATION_TYPE":"U","CENTER_NAME":"EARTH","OBJECT_NAME":"STARLINK-3348","REF_FRAME":"TEME","MEAN_ELEMENT_THEORY":"SGP4","DECAY_DATE":null,"OBJECT_TYPE":"PAYLOAD","MEAN_MOTION_DDOT":"0.0000000000000","PERIOD":"95.435","TIME_SYSTEM":"UTC","COUNTRY_CODE":"US","PERIAPSIS":"538.789","EPHEMERIS_TYPE":"0","INCLINATION":"53.2144","TLE_LINE2":"2 50810  53.2144 142.2658 0001230  88.4597 271.6536 15.08874394 61624","REV_AT_EPOCH":"6162","SEMIMAJOR_AXIS":"6917.775","APOAPSIS":"540.491","MEAN_ANOMALY":"271.6536","MEAN_MOTION_DOT":"0.00050273","OBJECT_ID":"2022-001H","EPOCH":"2023-02-14T17:50:15.476352","NORAD_CAT_ID":"50810","RA_OF_ASC_NODE":"142.2658","SITE":"AFETR","MEAN_MOTION":"15.08874394","GP_ID":"225432942","RCS_SIZE":"LARGE","LAUNCH_DATE":"2022-01-06","ECCENTRICITY":"0.00012300","ELEMENT_SET_NO":"999","ARG_OF_PERICENTER":"88.4597","BSTAR":"0.00315150000000","FILE":"3792084"},{"MEAN_MOTION_DDOT":"0.0000000000000","OBJECT_TYPE":"PAYLOAD","PERIOD":"95.436","MEAN_ELEMENT_THEORY":"SGP4","DECAY_DATE":null,"CENTER_NAME":"EARTH","OBJECT_NAME":"STARLINK-3347","REF_FRAME":"TEME","TLE_LINE1":"1 50811U 22001J   23045.73587233  .00016601  00000-0  10579-2 0  9990","CLASSIFICATION_TYPE":"U","INCLINATION":"53.2136","EPHEMERIS_TYPE":"0","TIME_SYSTEM":"UTC","COUNTRY_CODE":"US","PERIAPSIS":"538.763","NORAD_CAT_ID":"50811","EPOCH":"2023-02-14T17:39:39.369312","MEAN_MOTION_DOT":"0.00016601","OBJECT_ID":"2022-001J","SEMIMAJOR_AXIS":"6917.796","APOAPSIS":"540.559","MEAN_ANOMALY":"278.2460","TLE_LINE2":"2 50811  53.2136 142.2993 0001298  81.8679 278.2460 15.08867592 61621","REV_AT_EPOCH":"6162","BSTAR":"0.00105790000000","FILE":"3792084","ECCENTRICITY":"0.00012980","ELEMENT_SET_NO":"999","ARG_OF_PERICENTER":"81.8679","MEAN_MOTION":"15.08867592","RCS_SIZE":"LARGE","GP_ID":"225433192","LAUNCH_DATE":"2022-01-06","RA_OF_ASC_NODE":"142.2993","SITE":"AFETR"}];
